GLOBALSTAR M001         
1 25162U 98008A   25023.30937381 -.00000060  00000+0  28053-3 0  9994
2 25162  52.0047  34.9013 0001289 306.5030 174.1680 12.38205931225766
GLOBALSTAR M004         
1 25163U 98008B   25023.62246100 -.00000053  00000+0  28322-3 0  9993
2 25163  51.9996 135.1811 0002352 342.1804 122.0819 12.63386300243411
GLOBALSTAR M002         
1 25164U 98008C   25023.07242767 -.00000048  00000+0  55083-3 0  9996
2 25164  51.9984 244.0571 0000355 192.1395 167.9417 11.61506887167206
GLOBALSTAR M014         
1 25306U 98023A   25023.61646656 -.00000062  00000+0  29860-3 0  9996
2 25306  51.9815 168.9543 0002075  99.8673 343.1361 11.65478218174319
GLOBALSTAR M015         
1 25308U 98023C   25023.30076431 -.00000040  00000+0  75458-3 0  9992
2 25308  51.9846 308.6448 0012326 175.9252   2.2227 11.48857789177425
